NPP [+]                 
1 37849U 11061A   17346.56140194  .00000009  00000-0  24814-4 0  9993
2 37849  98.7194 282.7026 0001197  56.4347  49.6860 14.19556287317399
